{"fetched_at":"2026-04-14T06:02:07Z","count":5195,"tles":[{"name":"HST","line1":"1 20580U 90037B   26103.25790392  .00004371  00000+0  13847-3 0  9993","line2":"2 20580  28.4728 164.0875 0002305 141.6301 218.4459 15.30037103778610","category":"Other"},{"name":"SL-14 R/B","line1":"1 20466U 90010B   26103.28666324  .00000332  00000+0  37236-4 0  9999","line2":"2 20466  82.5022 234.8852 0019762 181.6575 178.4578 14.83604186933612","category":"Other"},{"name":"COSMOS 1975","line1":"1 19573U 88093A   26103.03311503  .00003330  00000+0  11847-3 0  9993","line2":"2 19573  82.5169  83.1875 0012980  56.3942 303.8535 15.28536839 24653","category":"Other"},{"name":"SL-8 R/B","line1":"1 20775U 90078B   26103.30428115  .00008192  00000+0  24173-3 0  9990","line2":"2 20775  82.9046 220.1540 0356694 257.0836  99.0328 14.90034342814453","category":"Other"},{"name":"DELTA 1 R/B","line1":"1 20323U 89089B   26103.03929182  .00000188  00000+0  55133-4 0  9997","line2":"2 20323  97.0678 305.0072 0069466  15.2656 345.0617 14.50691432900710","category":"Other"},{"name":"SL-14 R/B","line1":"1 19574U 88093B   26103.16404961  .00000283  00000+0  29731-4 0  9995","line2":"2 19574  82.5346   9.6901 0019150 285.4605 232.2537 14.85696611  6138","category":"Other"},{"name":"SL-8 R/B","line1":"1 19257U 88053B   26103.29720904  .00000115  00000+0  45934-4 0  9998","line2":"2 19257  74.0483  48.6698 0021077 222.9635 289.4473 14.38937663981576","category":"Other"},{"name":"SL-14 R/B","line1":"1 20511U 90018B   26103.20261522  .00000250  00000+0  28377-4 0  9996","line2":"2 20511  82.5243 190.8411 0015670 343.4895  16.5807 14.82178752927699","category":"Other"},{"name":"SL-16 R/B","line1":"1 19650U 88102B   26103.23341701  .00000025  00000+0  36874-4 0  9991","line2":"2 19650  70.9985  78.8097 0015933 311.8103  48.1658 14.16159983931785","category":"Other"},{"name":"SL-16 R/B","line1":"1 20625U 90046B   26103.26543051 -.00000261  00000+0 -11014-3 0  9992","line2":"2 20625  70.9995 225.2938 0016560 254.6899 105.2394 14.15017838853286","category":"Other"},{"name":"COSMOS 2084","line1":"1 20663U 90055A   26102.72388208  .00001706  00000+0  13070-3 0  9992","line2":"2 20663  62.7900 219.4779 0011595 202.6858 157.3731 15.05859871941442","category":"Other"},{"name":"SL-6 R/B(2)","line1":"1 20666U 90055D   26103.08594363  .00001034  00000+0  89001-4 0  9998","line2":"2 20666  62.7805 136.8658 0030403 354.4637   5.6122 15.03755484943362","category":"Other"},{"name":"ARIANE 40 R/B","line1":"1 20443U 90005H   26103.14185633  .00000157  00000+0  63183-4 0  9997","line2":"2 20443  98.3016 162.7645 0011418 101.0124 259.2350 14.39893823897760","category":"Other"},{"name":"INTERCOSMOS 24","line1":"1 20261U 89080A   26103.19761157  .00000298  00000+0  85128-4 0  9991","line2":"2 20261  82.6021  81.9269 1187222 212.6676 139.5323 12.59595714671143","category":"Other"},{"name":"DELTA 2 R/B(1)","line1":"1 20453U 90008B   26102.90632394  .00045554  00000+0  45695-3 0  9992","line2":"2 20453  35.6030 309.5094 0076231 220.9121 138.5878 15.60710458931470","category":"Other"},{"name":"SL-14 R/B","line1":"1 20262U 89080C   26103.12265545  .00000234  00000+0  60436-4 0  9990","line2":"2 20262  82.5929 151.0907 1230966 106.0858 267.9048 12.50523576664454","category":"Other"},{"name":"COSMOS 2058","line1":"1 20465U 90010A   26103.20553026  .00001856  00000+0  10741-3 0  9997","line2":"2 20465  82.4725  13.4218 0008861 207.6140 152.4621 15.11649009947455","category":"Other"}]}