[{"OBJECT_NAME":"SL-8 R/B","OBJECT_ID":"1988-053B","EPOCH":"2026-04-13T07:07:58.861056","MEAN_MOTION":14.38937663,"ECCENTRICITY":0.00210778,"INCLINATION":74.0483,"RA_OF_ASC_NODE":48.6698,"ARG_OF_PERICENTER":222.9635,"MEAN_ANOMALY":289.4473,"EPHEMERIS_TYPE":0,"CLASSIFICATION_TYPE":"U","NORAD_CAT_ID":19257,"ELEMENT_SET_NO":999,"REV_AT_EPOCH":98157,"BSTAR":4.5933554e-5,"MEAN_MOTION_DOT":1.15e-6,"MEAN_MOTION_DDOT":0},{"OBJECT_NAME":"COSMOS 1975","OBJECT_ID":"1988-093A","EPOCH":"2026-04-13T00:47:41.138592","MEAN_MOTION":15.28536839,"ECCENTRICITY":0.00129806,"INCLINATION":82.5169,"RA_OF_ASC_NODE":83.1875,"ARG_OF_PERICENTER":56.3942,"MEAN_ANOMALY":303.8535,"EPHEMERIS_TYPE":0,"CLASSIFICATION_TYPE":"U","NORAD_CAT_ID":19573,"ELEMENT_SET_NO":999,"REV_AT_EPOCH":2465,"BSTAR":0.00011847092,"MEAN_MOTION_DOT":3.33e-5,"MEAN_MOTION_DDOT":0},{"OBJECT_NAME":"SL-14 R/B","OBJECT_ID":"1988-093B","EPOCH":"2026-04-13T03:56:13.886304","MEAN_MOTION":14.85696611,"ECCENTRICITY":0.00191505,"INCLINATION":82.5346,"RA_OF_ASC_NODE":9.6901,"ARG_OF_PERICENTER":285.4605,"MEAN_ANOMALY":232.2537,"EPHEMERIS_TYPE":0,"CLASSIFICATION_TYPE":"U","NORAD_CAT_ID":19574,"ELEMENT_SET_NO":999,"REV_AT_EPOCH":613,"BSTAR":2.973103e-5,"MEAN_MOTION_DOT":2.83e-6,"MEAN_MOTION_DDOT":0},{"OBJECT_NAME":"SL-16 R/B","OBJECT_ID":"1988-102B","EPOCH":"2026-04-13T05:36:07.229664","MEAN_MOTION":14.16159983,"ECCENTRICITY":0.00159337,"INCLINATION":70.9985,"RA_OF_ASC_NODE":78.8097,"ARG_OF_PERICENTER":311.8103,"MEAN_ANOMALY":48.1658,"EPHEMERIS_TYPE":0,"CLASSIFICATION_TYPE":"U","NORAD_CAT_ID":19650,"ELEMENT_SET_NO":999,"REV_AT_EPOCH":93178,"BSTAR":3.6873619e-5,"MEAN_MOTION_DOT":2.5e-7,"MEAN_MOTION_DDOT":0},{"OBJECT_NAME":"INTERCOSMOS 24","OBJECT_ID":"1989-080A","EPOCH":"2026-04-13T04:44:33.639648","MEAN_MOTION":12.59595714,"ECCENTRICITY":0.11872224,"INCLINATION":82.6021,"RA_OF_ASC_NODE":81.9269,"ARG_OF_PERICENTER":212.6676,"MEAN_ANOMALY":139.5323,"EPHEMERIS_TYPE":0,"CLASSIFICATION_TYPE":"U","NORAD_CAT_ID":20261,"ELEMENT_SET_NO":999,"REV_AT_EPOCH":67114,"BSTAR":8.5127649e-5,"MEAN_MOTION_DOT":2.98e-6,"MEAN_MOTION_DDOT":0},{"OBJECT_NAME":"SL-14 R/B","OBJECT_ID":"1989-080C","EPOCH":"2026-04-13T02:56:37.430880","MEAN_MOTION":12.50523576,"ECCENTRICITY":0.12309661,"INCLINATION":82.5929,"RA_OF_ASC_NODE":151.0907,"ARG_OF_PERICENTER":106.0858,"MEAN_ANOMALY":267.9048,"EPHEMERIS_TYPE":0,"CLASSIFICATION_TYPE":"U","NORAD_CAT_ID":20262,"ELEMENT_SET_NO":999,"REV_AT_EPOCH":66445,"BSTAR":6.043562e-5,"MEAN_MOTION_DOT":2.34e-6,"MEAN_MOTION_DDOT":0},{"OBJECT_NAME":"DELTA 1 R/B","OBJECT_ID":"1989-089B","EPOCH":"2026-04-13T00:56:34.813248","MEAN_MOTION":14.50691432,"ECCENTRICITY":0.00694662,"INCLINATION":97.0678,"RA_OF_ASC_NODE":305.0072,"ARG_OF_PERICENTER":15.2656,"MEAN_ANOMALY":345.0617,"EPHEMERIS_TYPE":0,"CLASSIFICATION_TYPE":"U","NORAD_CAT_ID":20323,"ELEMENT_SET_NO":999,"REV_AT_EPOCH":90071,"BSTAR":5.5132712e-5,"MEAN_MOTION_DOT":1.88e-6,"MEAN_MOTION_DDOT":0},{"OBJECT_NAME":"ARIANE 40 R/B","OBJECT_ID":"1990-005H","EPOCH":"2026-04-13T03:24:16.386912","MEAN_MOTION":14.39893823,"ECCENTRICITY":0.00114182,"INCLINATION":98.3016,"RA_OF_ASC_NODE":162.7645,"ARG_OF_PERICENTER":101.0124,"MEAN_ANOMALY":259.235,"EPHEMERIS_TYPE":0,"CLASSIFICATION_TYPE":"U","NORAD_CAT_ID":20443,"ELEMENT_SET_NO":999,"REV_AT_EPOCH":89776,"BSTAR":6.3183145e-5,"MEAN_MOTION_DOT":1.57e-6,"MEAN_MOTION_DDOT":0},{"OBJECT_NAME":"DELTA 2 R/B(1)","OBJECT_ID":"1990-008B","EPOCH":"2026-04-12T21:45:06.388416","MEAN_MOTION":15.60710458,"ECCENTRICITY":0.0076231,"INCLINATION":35.603,"RA_OF_ASC_NODE":309.5094,"ARG_OF_PERICENTER":220.9121,"MEAN_ANOMALY":138.5878,"EPHEMERIS_TYPE":0,"CLASSIFICATION_TYPE":"U","NORAD_CAT_ID":20453,"ELEMENT_SET_NO":999,"REV_AT_EPOCH":93147,"BSTAR":0.00045695,"MEAN_MOTION_DOT":0.00045554,"MEAN_MOTION_DDOT":0},{"OBJECT_NAME":"COSMOS 2058","OBJECT_ID":"1990-010A","EPOCH":"2026-04-13T04:55:57.814464","MEAN_MOTION":15.11649009,"ECCENTRICITY":0.0008861,"INCLINATION":82.4725,"RA_OF_ASC_NODE":13.4218,"ARG_OF_PERICENTER":207.614,"MEAN_ANOMALY":152.4621,"EPHEMERIS_TYPE":0,"CLASSIFICATION_TYPE":"U","NORAD_CAT_ID":20465,"ELEMENT_SET_NO":999,"REV_AT_EPOCH":94745,"BSTAR":0.00010741295,"MEAN_MOTION_DOT":1.856e-5,"MEAN_MOTION_DDOT":0},{"OBJECT_NAME":"SL-14 R/B","OBJECT_ID":"1990-010B","EPOCH":"2026-04-13T06:52:47.703936","MEAN_MOTION":14.83604186,"ECCENTRICITY":0.00197623,"INCLINATION":82.5022,"RA_OF_ASC_NODE":234.8852,"ARG_OF_PERICENTER":181.6575,"MEAN_ANOMALY":178.4578,"EPHEMERIS_TYPE":0,"CLASSIFICATION_TYPE":"U","NORAD_CAT_ID":20466,"ELEMENT_SET_NO":999,"REV_AT_EPOCH":93361,"BSTAR":3.7236109e-5,"MEAN_MOTION_DOT":3.32e-6,"MEAN_MOTION_DDOT":0},{"OBJECT_NAME":"SL-14 R/B","OBJECT_ID":"1990-018B","EPOCH":"2026-04-13T04:51:45.955008","MEAN_MOTION":14.82178752,"ECCENTRICITY":0.00156704,"INCLINATION":82.5243,"RA_OF_ASC_NODE":190.8411,"ARG_OF_PERICENTER":343.4895,"MEAN_ANOMALY":16.5807,"EPHEMERIS_TYPE":0,"CLASSIFICATION_TYPE":"U","NORAD_CAT_ID":20511,"ELEMENT_SET_NO":999,"REV_AT_EPOCH":92769,"BSTAR":2.8377274e-5,"MEAN_MOTION_DOT":2.5e-6,"MEAN_MOTION_DDOT":0},{"OBJECT_NAME":"HST","OBJECT_ID":"1990-037B","EPOCH":"2026-04-13T06:11:22.898688","MEAN_MOTION":15.30037103,"ECCENTRICITY":0.00023054,"INCLINATION":28.4728,"RA_OF_ASC_NODE":164.0875,"ARG_OF_PERICENTER":141.6301,"MEAN_ANOMALY":218.4459,"EPHEMERIS_TYPE":0,"CLASSIFICATION_TYPE":"U","NORAD_CAT_ID":20580,"ELEMENT_SET_NO":999,"REV_AT_EPOCH":77861,"BSTAR":0.00013847079,"MEAN_MOTION_DOT":4.371e-5,"MEAN_MOTION_DDOT":0},{"OBJECT_NAME":"SL-16 R/B","OBJECT_ID":"1990-046B","EPOCH":"2026-04-13T06:22:13.196064","MEAN_MOTION":14.15017838,"ECCENTRICITY":0.00165603,"INCLINATION":70.9995,"RA_OF_ASC_NODE":225.2938,"ARG_OF_PERICENTER":254.6899,"MEAN_ANOMALY":105.2394,"EPHEMERIS_TYPE":0,"CLASSIFICATION_TYPE":"U","NORAD_CAT_ID":20625,"ELEMENT_SET_NO":999,"REV_AT_EPOCH":85328,"BSTAR":-0.00011014101,"MEAN_MOTION_DOT":-2.61e-6,"MEAN_MOTION_DDOT":0},{"OBJECT_NAME":"COSMOS 2084","OBJECT_ID":"1990-055A","EPOCH":"2026-04-12T17:22:23.411712","MEAN_MOTION":15.05859871,"ECCENTRICITY":0.0011595,"INCLINATION":62.79,"RA_OF_ASC_NODE":219.4779,"ARG_OF_PERICENTER":202.6858,"MEAN_ANOMALY":157.3731,"EPHEMERIS_TYPE":0,"CLASSIFICATION_TYPE":"U","NORAD_CAT_ID":20663,"ELEMENT_SET_NO":999,"REV_AT_EPOCH":94144,"BSTAR":0.00013069652,"MEAN_MOTION_DOT":1.706e-5,"MEAN_MOTION_DDOT":0},{"OBJECT_NAME":"SL-6 R/B(2)","OBJECT_ID":"1990-055D","EPOCH":"2026-04-13T02:03:45.529632","MEAN_MOTION":15.03755484,"ECCENTRICITY":0.00304036,"INCLINATION":62.7805,"RA_OF_ASC_NODE":136.8658,"ARG_OF_PERICENTER":354.4637,"MEAN_ANOMALY":5.6122,"EPHEMERIS_TYPE":0,"CLASSIFICATION_TYPE":"U","NORAD_CAT_ID":20666,"ELEMENT_SET_NO":999,"REV_AT_EPOCH":94336,"BSTAR":8.9001257e-5,"MEAN_MOTION_DOT":1.034e-5,"MEAN_MOTION_DDOT":0},{"OBJECT_NAME":"SL-8 R/B","OBJECT_ID":"1990-078B","EPOCH":"2026-04-13T07:18:09.891360","MEAN_MOTION":14.90034342,"ECCENTRICITY":0.03566949,"INCLINATION":82.9046,"RA_OF_ASC_NODE":220.154,"ARG_OF_PERICENTER":257.0836,"MEAN_ANOMALY":99.0328,"EPHEMERIS_TYPE":0,"CLASSIFICATION_TYPE":"U","NORAD_CAT_ID":20775,"ELEMENT_SET_NO":999,"REV_AT_EPOCH":81445,"BSTAR":0.00024172904,"MEAN_MOTION_DOT":8.192e-5,"MEAN_MOTION_DDOT":0}]
